STARLINK-37169          
1 68346U 26059AB  26100.53601795  .00059401  00000+0  30233-3 0  9996
2 68346  53.1584 203.0609 0000373 164.1500 195.9534 15.80879487  3012
STARLINK-37136          
1 68347U 26059AC  26100.47205163  .00128407  00000+0  64287-3 0  9998
2 68347  53.1584 203.3727 0001012  94.0623 266.0516 15.80927226  3009
STARLINK-37182          
1 68348U 26059AD  26100.53752006  .00208775  00000+0  10320-2 0  9994
2 68348  53.1585 203.0710 0001140  86.2492 273.8661 15.80956062  3017
STARLINK-37183          
1 68349U 26059AE  26100.47130009  .00099804  00000+0  50226-3 0  9992
2 68349  53.1587 203.3677 0001018 102.3483 257.7654 15.80920720  3003
CENTISPACE-1 OBJECT A   
1 68350U 26060A   26100.54543581 -.00450719  00000+0 -71553-1 0  9999
2 68350  54.9791 311.6710 0014549 308.4164  51.5528 14.74168550  2792
CENTISPACE-1 OBJECT B   
1 68351U 26060B   26100.27476977  .00001595  00000+0  26870-3 0  9990
2 68351  54.9880 312.7674 0013886 337.6480  22.3912 14.74520167  2756
CENTISPACE-1 OBJECT C   
1 68352U 26060C   26100.54435819 -.00000022  00000+0  27869-4 0  9996
2 68352  54.9895 311.6510 0012545 354.0195   6.0652 14.74334793  2799
CENTISPACE-1 OBJECT D   
1 68353U 26060D   26100.54435689 -.00000029  00000+0  27046-4 0  9996
2 68353  54.9734 311.6433 0011448   0.5757 359.5253 14.73762940  2795
CENTISPACE-1 OBJECT E   
1 68354U 26060E   26096.40862123  .00000057  00000+0  39396-4 0  9994
2 68354  54.9777 328.5107 0012841 340.1409  19.9089 14.74860184  2180
CENTISPACE-1 OBJECT F   
1 68355U 26060F   26097.49295117  .00000020  00000+0  34082-4 0  9995
2 68355  54.9785 324.0963 0015935 341.0819  18.9586 14.74770540  2348
CENTISPACE-1 OBJECT G   
1 68356U 26060G   26100.40540514 -.00000015  00000+0  28651-4 0  9996
2 68356  54.9858 312.2041 0014067 349.7976  10.2736 14.75091732  2779
CENTISPACE-1 OBJECT H   
1 68357U 26060H   26100.13415012 -.00000020  00000+0  28091-4 0  9995
2 68357  54.9874 313.3051 0012979 355.4603   4.6277 14.74683357  2734
CENTISPACE-1 OBJECT J   
1 68358U 26060J   26100.74406630 -.00000040  00000+0  25230-4 0  9993
2 68358  54.9818 310.8137 0012552 351.6183   8.4604 14.74492910  2827
CENTISPACE-1 OBJECT K   
1 68359U 26060K   26094.64400183  .00000084  00000+0  43131-4 0  9999
2 68359  54.9800 335.6935 0014769 336.0624  23.9687 14.75283234  1920
RASSVET-3 1             
1 68360U 26061A   26100.48006766  .00080430  10389-5  32440-3 0  9991
2 68360  82.2952  88.5876 0022663  11.4642 348.7139 15.85801729  2825
RASSVET-3 2             
1 68361U 26061B   26100.48020189  .00105174  27453-5  34272-3 0  9995
2 68361  82.2975  88.5907 0024276   8.6348 351.5336 15.90045604  2828
