[{"OBJECT_NAME":"STARLINK-37169","OBJECT_ID":"2026-059AB","EPOCH":"2026-04-10T12:51:51.950880","MEAN_MOTION":15.80879487,"ECCENTRICITY":3.73e-5,"INCLINATION":53.1584,"RA_OF_ASC_NODE":203.0609,"ARG_OF_PERICENTER":164.15,"MEAN_ANOMALY":195.9534,"EPHEMERIS_TYPE":0,"CLASSIFICATION_TYPE":"U","NORAD_CAT_ID":68346,"ELEMENT_SET_NO":999,"REV_AT_EPOCH":301,"BSTAR":0.00030233,"MEAN_MOTION_DOT":0.00059401,"MEAN_MOTION_DDOT":0},{"OBJECT_NAME":"STARLINK-37136","OBJECT_ID":"2026-059AC","EPOCH":"2026-04-10T11:19:45.260832","MEAN_MOTION":15.80927226,"ECCENTRICITY":0.0001012,"INCLINATION":53.1584,"RA_OF_ASC_NODE":203.3727,"ARG_OF_PERICENTER":94.0623,"MEAN_ANOMALY":266.0516,"EPHEMERIS_TYPE":0,"CLASSIFICATION_TYPE":"U","NORAD_CAT_ID":68347,"ELEMENT_SET_NO":999,"REV_AT_EPOCH":300,"BSTAR":0.00064287,"MEAN_MOTION_DOT":0.00128407,"MEAN_MOTION_DDOT":0},{"OBJECT_NAME":"STARLINK-37182","OBJECT_ID":"2026-059AD","EPOCH":"2026-04-10T12:54:01.733184","MEAN_MOTION":15.80956062,"ECCENTRICITY":0.000114,"INCLINATION":53.1585,"RA_OF_ASC_NODE":203.071,"ARG_OF_PERICENTER":86.2492,"MEAN_ANOMALY":273.8661,"EPHEMERIS_TYPE":0,"CLASSIFICATION_TYPE":"U","NORAD_CAT_ID":68348,"ELEMENT_SET_NO":999,"REV_AT_EPOCH":301,"BSTAR":0.001032,"MEAN_MOTION_DOT":0.00208775,"MEAN_MOTION_DDOT":0},{"OBJECT_NAME":"STARLINK-37183","OBJECT_ID":"2026-059AE","EPOCH":"2026-04-10T11:18:40.327776","MEAN_MOTION":15.8092072,"ECCENTRICITY":0.0001018,"INCLINATION":53.1587,"RA_OF_ASC_NODE":203.3677,"ARG_OF_PERICENTER":102.3483,"MEAN_ANOMALY":257.7654,"EPHEMERIS_TYPE":0,"CLASSIFICATION_TYPE":"U","NORAD_CAT_ID":68349,"ELEMENT_SET_NO":999,"REV_AT_EPOCH":300,"BSTAR":0.00050226,"MEAN_MOTION_DOT":0.00099804,"MEAN_MOTION_DDOT":0},{"OBJECT_NAME":"CENTISPACE-1 OBJECT A","OBJECT_ID":"2026-060A","EPOCH":"2026-04-10T13:05:25.653984","MEAN_MOTION":14.7416855,"ECCENTRICITY":0.0014549,"INCLINATION":54.9791,"RA_OF_ASC_NODE":311.671,"ARG_OF_PERICENTER":308.4164,"MEAN_ANOMALY":51.5528,"EPHEMERIS_TYPE":0,"CLASSIFICATION_TYPE":"U","NORAD_CAT_ID":68350,"ELEMENT_SET_NO":999,"REV_AT_EPOCH":279,"BSTAR":-0.071553,"MEAN_MOTION_DOT":-0.00450719,"MEAN_MOTION_DDOT":0},{"OBJECT_NAME":"CENTISPACE-1 OBJECT B","OBJECT_ID":"2026-060B","EPOCH":"2026-04-10T06:35:40.108128","MEAN_MOTION":14.74520167,"ECCENTRICITY":0.0013886,"INCLINATION":54.988,"RA_OF_ASC_NODE":312.7674,"ARG_OF_PERICENTER":337.648,"MEAN_ANOMALY":22.3912,"EPHEMERIS_TYPE":0,"CLASSIFICATION_TYPE":"U","NORAD_CAT_ID":68351,"ELEMENT_SET_NO":999,"REV_AT_EPOCH":275,"BSTAR":0.0002687,"MEAN_MOTION_DOT":1.595e-5,"MEAN_MOTION_DDOT":0},{"OBJECT_NAME":"CENTISPACE-1 OBJECT C","OBJECT_ID":"2026-060C","EPOCH":"2026-04-10T13:03:52.547616","MEAN_MOTION":14.74334793,"ECCENTRICITY":0.0012545,"INCLINATION":54.9895,"RA_OF_ASC_NODE":311.651,"ARG_OF_PERICENTER":354.0195,"MEAN_ANOMALY":6.0652,"EPHEMERIS_TYPE":0,"CLASSIFICATION_TYPE":"U","NORAD_CAT_ID":68352,"ELEMENT_SET_NO":999,"REV_AT_EPOCH":279,"BSTAR":2.7869e-5,"MEAN_MOTION_DOT":-2.2e-7,"MEAN_MOTION_DDOT":0},{"OBJECT_NAME":"CENTISPACE-1 OBJECT D","OBJECT_ID":"2026-060D","EPOCH":"2026-04-10T13:03:52.435296","MEAN_MOTION":14.7376294,"ECCENTRICITY":0.0011448,"INCLINATION":54.9734,"RA_OF_ASC_NODE":311.6433,"ARG_OF_PERICENTER":0.5757,"MEAN_ANOMALY":359.5253,"EPHEMERIS_TYPE":0,"CLASSIFICATION_TYPE":"U","NORAD_CAT_ID":68353,"ELEMENT_SET_NO":999,"REV_AT_EPOCH":279,"BSTAR":2.7046e-5,"MEAN_MOTION_DOT":-2.9e-7,"MEAN_MOTION_DDOT":0},{"OBJECT_NAME":"CENTISPACE-1 OBJECT E","OBJECT_ID":"2026-060E","EPOCH":"2026-04-06T09:48:24.874272","MEAN_MOTION":14.74860184,"ECCENTRICITY":0.00128411,"INCLINATION":54.9777,"RA_OF_ASC_NODE":328.5107,"ARG_OF_PERICENTER":340.1409,"MEAN_ANOMALY":19.9089,"EPHEMERIS_TYPE":0,"CLASSIFICATION_TYPE":"U","NORAD_CAT_ID":68354,"ELEMENT_SET_NO":999,"REV_AT_EPOCH":218,"BSTAR":3.9395794e-5,"MEAN_MOTION_DOT":5.7e-7,"MEAN_MOTION_DDOT":0},{"OBJECT_NAME":"CENTISPACE-1 OBJECT F","OBJECT_ID":"2026-060F","EPOCH":"2026-04-07T11:49:50.981088","MEAN_MOTION":14.7477054,"ECCENTRICITY":0.0015935,"INCLINATION":54.9785,"RA_OF_ASC_NODE":324.0963,"ARG_OF_PERICENTER":341.0819,"MEAN_ANOMALY":18.9586,"EPHEMERIS_TYPE":0,"CLASSIFICATION_TYPE":"U","NORAD_CAT_ID":68355,"ELEMENT_SET_NO":999,"REV_AT_EPOCH":234,"BSTAR":3.408233e-5,"MEAN_MOTION_DOT":2.0e-7,"MEAN_MOTION_DDOT":0},{"OBJECT_NAME":"CENTISPACE-1 OBJECT G","OBJECT_ID":"2026-060G","EPOCH":"2026-04-10T09:43:47.004096","MEAN_MOTION":14.75091732,"ECCENTRICITY":0.0014067,"INCLINATION":54.9858,"RA_OF_ASC_NODE":312.2041,"ARG_OF_PERICENTER":349.7976,"MEAN_ANOMALY":10.2736,"EPHEMERIS_TYPE":0,"CLASSIFICATION_TYPE":"U","NORAD_CAT_ID":68356,"ELEMENT_SET_NO":999,"REV_AT_EPOCH":277,"BSTAR":2.8651e-5,"MEAN_MOTION_DOT":-1.5e-7,"MEAN_MOTION_DDOT":0},{"OBJECT_NAME":"CENTISPACE-1 OBJECT H","OBJECT_ID":"2026-060H","EPOCH":"2026-04-10T03:13:10.570368","MEAN_MOTION":14.74683357,"ECCENTRICITY":0.0012979,"INCLINATION":54.9874,"RA_OF_ASC_NODE":313.3051,"ARG_OF_PERICENTER":355.4603,"MEAN_ANOMALY":4.6277,"EPHEMERIS_TYPE":0,"CLASSIFICATION_TYPE":"U","NORAD_CAT_ID":68357,"ELEMENT_SET_NO":999,"REV_AT_EPOCH":273,"BSTAR":2.8091e-5,"MEAN_MOTION_DOT":-2.0e-7,"MEAN_MOTION_DDOT":0},{"OBJECT_NAME":"CENTISPACE-1 OBJECT J","OBJECT_ID":"2026-060J","EPOCH":"2026-04-10T17:51:27.328320","MEAN_MOTION":14.7449291,"ECCENTRICITY":0.0012552,"INCLINATION":54.9818,"RA_OF_ASC_NODE":310.8137,"ARG_OF_PERICENTER":351.6183,"MEAN_ANOMALY":8.4604,"EPHEMERIS_TYPE":0,"CLASSIFICATION_TYPE":"U","NORAD_CAT_ID":68358,"ELEMENT_SET_NO":999,"REV_AT_EPOCH":282,"BSTAR":2.523e-5,"MEAN_MOTION_DOT":-4.0e-7,"MEAN_MOTION_DDOT":0},{"OBJECT_NAME":"CENTISPACE-1 OBJECT K","OBJECT_ID":"2026-060K","EPOCH":"2026-04-04T15:27:21.758112","MEAN_MOTION":14.75283234,"ECCENTRICITY":0.0014769,"INCLINATION":54.98,"RA_OF_ASC_NODE":335.6935,"ARG_OF_PERICENTER":336.0624,"MEAN_ANOMALY":23.9687,"EPHEMERIS_TYPE":0,"CLASSIFICATION_TYPE":"U","NORAD_CAT_ID":68359,"ELEMENT_SET_NO":999,"REV_AT_EPOCH":192,"BSTAR":4.3130657e-5,"MEAN_MOTION_DOT":8.4e-7,"MEAN_MOTION_DDOT":0},{"OBJECT_NAME":"RASSVET-3 1","OBJECT_ID":"2026-061A","EPOCH":"2026-04-10T11:31:17.845824","MEAN_MOTION":15.85801729,"ECCENTRICITY":0.0022663,"INCLINATION":82.2952,"RA_OF_ASC_NODE":88.5876,"ARG_OF_PERICENTER":11.4642,"MEAN_ANOMALY":348.7139,"EPHEMERIS_TYPE":0,"CLASSIFICATION_TYPE":"U","NORAD_CAT_ID":68360,"ELEMENT_SET_NO":999,"REV_AT_EPOCH":282,"BSTAR":0.0003244,"MEAN_MOTION_DOT":0.0008043,"MEAN_MOTION_DDOT":1.0389e-6},{"OBJECT_NAME":"RASSVET-3 2","OBJECT_ID":"2026-061B","EPOCH":"2026-04-10T11:31:29.443296","MEAN_MOTION":15.90045604,"ECCENTRICITY":0.0024276,"INCLINATION":82.2975,"RA_OF_ASC_NODE":88.5907,"ARG_OF_PERICENTER":8.6348,"MEAN_ANOMALY":351.5336,"EPHEMERIS_TYPE":0,"CLASSIFICATION_TYPE":"U","NORAD_CAT_ID":68361,"ELEMENT_SET_NO":999,"REV_AT_EPOCH":282,"BSTAR":0.00034272,"MEAN_MOTION_DOT":0.00105174,"MEAN_MOTION_DDOT":2.7453e-6}]
